NORAD_CAT_ID,OBJECT_NAME,OBJECT_TYPE,EPOCH,MEAN_MOTION,ECCENTRICITY,INCLINATION,RA_OF_ASC_NODE,ARG_OF_PERICENTER,MEAN_ANOMALY,BSTAR,MEAN_MOTION_DOT,MEAN_MOTION_DDOT,TLE_LINE0,TLE_LINE1,TLE_LINE2,SEMIMAJOR_AXIS,PERIOD,APOGEE,PERIGEE,DECAYED
53415.0,STARLINK-4479,PAYLOAD,2024-02-17 20:38:25,15.08843758,0.0001261,53.2163,244.7241,81.8658,278.2477,3.6026e-05,2.86e-06,0.0,0 STARLINK-4479,1 53415U 22097AD  24048.86001523  .00000286  00000-0  36026-4 0  9998,2 53415  53.2163 244.7241 0001261  81.8658 278.2477 15.08843758 85278,6917.869,95.437,540.606,538.862,0.0
53415.0,STARLINK-4479,PAYLOAD,2024-02-18 12:32:16,15.08840586,0.0001561,53.216,241.751,87.0132,273.1038,9.7396e-06,-1.33e-06,0.0,0 STARLINK-4479,1 53415U 22097AD  24049.52241828 -.00000133  00000-0  97396-5 0  9996,2 53415  53.2160 241.7510 0001561  87.0132 273.1038 15.08840586 84912,6917.879,95.438,540.823,538.664,0.0
53415.0,STARLINK-4479,PAYLOAD,2024-02-18 18:53:49,15.08830539,0.0001297,53.2159,240.5614,91.5758,268.5382,0.00017946,2.569e-05,0.0,0 STARLINK-4479,1 53415U 22097AD  24049.78738047  .00002569  00000-0  17946-3 0  9993,2 53415  53.2159 240.5614 0001297  91.5758 268.5382 15.08830539 85415,6917.909,95.438,540.672,538.877,0.0
53415.0,STARLINK-4479,PAYLOAD,2024-02-19 06:01:31,15.08832919,0.0001227,53.2153,238.4801,93.25,266.8633,8.1946e-05,1.016e-05,0.0,0 STARLINK-4479,1 53415U 22097AD  24050.25106057  .00001016  00000-0  81946-4 0  9995,2 53415  53.2153 238.4801 0001227  93.2500 266.8633 15.08832919 85481,6917.902,95.438,540.616,538.918,0.0
53415.0,STARLINK-4479,PAYLOAD,2024-02-19 18:44:36,15.08839425,0.0001257,53.2153,236.1015,87.5741,272.5395,6.8407e-05,8.01e-06,0.0,0 STARLINK-4479,1 53415U 22097AD  24050.78097711  .00000801  00000-0  68407-4 0  9997,2 53415  53.2153 236.1015 0001257  87.5741 272.5395 15.08839425 85106,6917.882,95.438,540.617,538.878,0.0
53415.0,STARLINK-4479,PAYLOAD,2024-02-19 21:55:22,15.08839446,0.0001153,53.2148,235.5076,91.6924,268.4201,7.0948e-05,8.41e-06,0.0,0 STARLINK-4479,1 53415U 22097AD  24050.91345623  .00000841  00000-0  70948-4 0  9997,2 53415  53.2148 235.5076 0001153  91.6924 268.4201 15.08839446 85589,6917.882,95.438,540.545,538.949,0.0
53415.0,STARLINK-4479,PAYLOAD,2024-02-20 12:13:51,15.08835215,0.0001391,53.2159,232.8315,84.86,275.2551,4.7447e-05,4.67e-06,0.0,0 STARLINK-4479,1 53415U 22097AD  24051.50962111  .00000467  00000-0  47447-4 0  9992,2 53415  53.2159 232.8315 0001391  84.8600 275.2551 15.08835215 85670,6917.895,95.438,540.722,538.798,0.0
53415.0,STARLINK-4479,PAYLOAD,2024-02-20 18:35:23,15.0883786,0.000125,53.2155,231.642,87.3126,272.8009,7.3039e-05,8.75e-06,0.0,0 STARLINK-4479,1 53415U 22097AD  24051.77457904  .00000875  00000-0  73039-4 0  9999,2 53415  53.2155 231.6420 0001250  87.3126 272.8009 15.08837860 85719,6917.887,95.438,540.617,538.887,0.0
53415.0,STARLINK-4479,PAYLOAD,2024-02-21 15:15:24,15.08843305,0.0001513,53.2179,227.7747,93.8067,266.3099,4.7366e-05,4.66e-06,0.0,0 STARLINK-4479,1 53415U 22097AD  24052.63569628  .00000466  00000-0  47366-4 0  9992,2 53415  53.2179 227.7747 0001513  93.8067 266.3099 15.08843305 85843,6917.87,95.437,540.782,538.689,0.0
53415.0,STARLINK-4479,PAYLOAD,2024-02-21 18:26:10,15.08844856,0.0001345,53.217,227.1812,88.8913,271.2233,8.4606e-05,1.059e-05,0.0,0 STARLINK-4479,1 53415U 22097AD  24052.76817402  .00001059  00000-0  84606-4 0  9999,2 53415  53.2170 227.1812 0001345  88.8913 271.2233 15.08844856 85407,6917.866,95.437,540.661,538.8,0.0
53415.0,STARLINK-4479,PAYLOAD,2024-02-22 11:55:25,15.08835821,0.0001379,53.2176,223.9111,90.2546,269.8604,3.3814e-05,2.5e-06,0.0,0 STARLINK-4479,1 53415U 22097AD  24053.49682145  .00000250  00000-0  33814-4 0  9991,2 53415  53.2176 223.9111 0001379  90.2546 269.8604 15.08835821 85514,6917.893,95.438,540.712,538.804,0.0
53415.0,STARLINK-4479,PAYLOAD,2024-02-22 18:16:57,15.08837067,0.0001323,53.2172,222.7217,87.5559,272.5584,1.5245e-05,-4.5e-07,0.0,0 STARLINK-4479,1 53415U 22097AD  24053.76178150 -.00000045  00000-0  15245-4 0  9998,2 53415  53.2172 222.7217 0001323  87.5559 272.5584 15.08837067 86014,6917.889,95.438,540.67,538.839,0.0
53415.0,STARLINK-4479,PAYLOAD,2024-02-23 11:46:12,15.08832696,0.0001377,53.2174,219.452,92.6333,267.4817,-2.5293e-05,-6.9e-06,0.0,0 STARLINK-4479,1 53415U 22097AD  24054.49042762 -.00000690  00000-0 -25293-4 0  9999,2 53415  53.2174 219.4520 0001377  92.6333 267.4817 15.08832696 86129,6917.903,95.438,540.72,538.815,0.0
53415.0,STARLINK-4479,PAYLOAD,2024-02-23 18:07:45,15.08835225,0.0001359,53.2173,218.2624,92.2002,267.9146,-6.6559e-06,-3.94e-06,0.0,0 STARLINK-4479,1 53415U 22097AD  24054.75538634 -.00000394  00000-0 -66559-5 0  9998,2 53415  53.2173 218.2624 0001359  92.2002 267.9146 15.08835225 85703,6917.895,95.438,540.7,538.82,0.0
53415.0,STARLINK-4479,PAYLOAD,2024-02-24 19:33:55,15.0883474,0.0001271,53.2162,213.5013,85.5723,274.5414,0.00016659,2.364e-05,0.0,0 STARLINK-4479,1 53415U 22097AD  24055.81522395  .00002364  00000-0  16659-3 0  9994,2 53415  53.2162 213.5013 0001271  85.5723 274.5414 15.08834740 85869,6917.896,95.438,540.641,538.882,0.0
53415.0,STARLINK-4479,PAYLOAD,2024-02-25 03:30:53,15.08798725,8.22e-05,53.217,212.0166,79.7888,280.3197,-0.00022626,-3.883e-05,0.0,0 STARLINK-4479,1 53415U 22097AD  24056.14645727 -.00003883  00000-0 -22626-3 0  9996,2 53415  53.2170 212.0166 0000822  79.7888 280.3197 15.08798725 85910,6918.007,95.44,540.44,539.303,0.0
53415.0,STARLINK-4479,PAYLOAD,2024-02-25 09:52:26,15.08814794,8.51e-05,53.2159,210.824,72.4016,287.7069,-0.00012919,-2.342e-05,0.0,0 STARLINK-4479,1 53415U 22097AD  24056.41141629 -.00002342  00000-0 -12919-3 0  9991,2 53415  53.2159 210.8240 0000851  72.4016 287.7069 15.08814794 85959,6917.957,95.439,540.411,539.234,0.0
53415.0,STARLINK-4479,PAYLOAD,2024-02-25 14:38:33,15.08840397,0.0001234,53.216,209.9318,94.2239,265.8895,8.5001e-05,1.065e-05,0.0,0 STARLINK-4479,1 53415U 22097AD  24056.61011527  .00001065  00000-0  85001-4 0  9998,2 53415  53.2160 209.9318 0001234  94.2239 265.8895 15.08840397 86448,6917.879,95.438,540.598,538.891,0.0
53415.0,STARLINK-4479,PAYLOAD,2024-02-25 19:24:43,15.0884403,0.0001242,53.2172,209.0411,79.3343,280.7789,0.00012706,1.735e-05,0.0,0 STARLINK-4479,1 53415U 22097AD  24056.80883360  .00001735  00000-0  12706-3 0  9996,2 53415  53.2172 209.0411 0001242  79.3343 280.7789 15.08844030 86014,6917.868,95.437,540.592,538.874,0.0
53415.0,STARLINK-4479,PAYLOAD,2024-02-26 14:29:19,15.08836105,0.0001025,53.2174,205.4743,71.7506,288.3598,0.0005211,8.014e-05,0.0,0 STARLINK-4479,1 53415U 22097AD  24057.60369780  .00008014  00000-0  52110-3 0  9990,2 53415  53.2174 205.4743 0001025  71.7506 288.3598 15.08836105 86599,6917.892,95.438,540.466,539.048,0.0
53415.0,STARLINK-4479,PAYLOAD,2024-02-26 19:15:28,15.0884832,0.0001095,53.2169,204.5798,82.019,278.0927,0.00060063,9.286e-05,0.0,0 STARLINK-4479,1 53415U 22097AD  24057.80241008  .00009286  00000-0  60063-3 0  9992,2 53415  53.2169 204.5798 0001095  82.0190 278.0927 15.08848320 86161,6917.855,95.437,540.477,538.962,0.0
53415.0,STARLINK-4479,PAYLOAD,2024-02-27 09:33:59,15.08812759,5.96e-05,53.218,201.9056,87.1654,272.9406,0.00037635,5.703e-05,0.0,0 STARLINK-4479,1 53415U 22097AD  24058.39860298  .00005703  00000-0  37635-3 0  9994,2 53415  53.2180 201.9056 0000596  87.1654 272.9406 15.08812759 86250,6917.964,95.439,540.241,539.416,0.0
53415.0,STARLINK-4479,PAYLOAD,2024-02-27 14:20:08,15.08817922,0.0001068,53.2177,201.0133,90.3365,269.775,0.00037754,5.722e-05,0.0,0 STARLINK-4479,1 53415U 22097AD  24058.59732246  .00005722  00000-0  37754-3 0  9990,2 53415  53.2177 201.0133 0001068  90.3365 269.7750 15.08817922 86740,6917.948,95.439,540.552,539.074,0.0
53415.0,STARLINK-4479,PAYLOAD,2024-02-27 19:06:17,15.08847531,0.0001306,53.2173,200.12,92.7831,267.331,-1.1631e-05,-4.73e-06,0.0,0 STARLINK-4479,1 53415U 22097AD  24058.79603262 -.00000473  00000-0 -11631-4 0  9994,2 53415  53.2173 200.1200 0001306  92.7831 267.3310 15.08847531 86318,6917.857,95.437,540.626,538.819,0.0
53415.0,STARLINK-4479,PAYLOAD,2024-02-28 14:10:54,15.0885027,0.0001442,53.2173,196.5508,95.9791,264.1365,-0.00011599,-2.134e-05,0.0,0 STARLINK-4479,1 53415U 22097AD  24059.59090917 -.00002134  00000-0 -11599-3 0  9998,2 53415  53.2173 196.5508 0001442  95.9791 264.1365 15.08850270 86890,6917.849,95.437,540.712,538.716,0.0
53415.0,STARLINK-4479,PAYLOAD,2024-02-28 18:57:03,15.08856845,0.0001295,53.2165,195.656,85.441,274.673,-0.00011911,-2.184e-05,0.0,0 STARLINK-4479,1 53415U 22097AD  24059.78962277 -.00002184  00000-0 -11911-3 0  9999,2 53415  53.2165 195.6560 0001295  85.4410 274.6730 15.08856845 86927,6917.829,95.436,540.59,538.798,0.0
53415.0,STARLINK-4479,PAYLOAD,2024-02-29 12:26:18,15.08844189,0.0001477,53.2161,192.3855,102.1437,257.972,0.00012207,1.656e-05,0.0,0 STARLINK-4479,1 53415U 22097AD  24060.51826428  .00001656  00000-0  12207-3 0  9999,2 53415  53.2161 192.3855 0001477 102.1437 257.9720 15.08844189 86574,6917.868,95.437,540.754,538.711,0.0
53415.0,STARLINK-4479,PAYLOAD,2024-02-29 14:01:41,15.08845424,0.0001482,53.2164,192.0879,102.5608,257.555,0.00012362,1.68e-05,0.0,0 STARLINK-4479,1 53415U 22097AD  24060.58450305  .00001680  00000-0  12362-3 0  9992,2 53415  53.2164 192.0879 0001482 102.5608 257.5550 15.08845424 87043,6917.864,95.437,540.754,538.704,0.0
53415.0,STARLINK-4479,PAYLOAD,2024-02-29 15:37:04,15.08847666,0.0001294,53.2166,191.7937,87.8204,272.2936,0.00015785,2.226e-05,0.0,0 STARLINK-4479,1 53415U 22097AD  24060.65074123  .00002226  00000-0  15785-3 0  9999,2 53415  53.2166 191.7937 0001294  87.8204 272.2936 15.08847666 87057,6917.857,95.437,540.617,538.827,0.0
53415.0,STARLINK-4479,PAYLOAD,2024-03-01 13:52:28,15.08842314,0.0001401,53.217,187.6339,89.521,270.5943,4.0967e-05,3.64e-06,0.0,0 STARLINK-4479,1 53415U 22097AD  24061.57811082  .00000364  00000-0  40967-4 0  9996,2 53415  53.2170 187.6339 0001401  89.5210 270.5943 15.08842314 87197,6917.873,95.437,540.708,538.769,0.0
